FENGYUN 1C DEB          
1 29751U 99025AR  17345.72368578  .00000052  00000-0  42855-4 0  9990
2 29751  98.8768   4.5220 0090705 310.9585 100.3828 14.21660159565257
